norad_id,name,regime,epoch,line1,line2,inclination,eccentricity,mean_motion,raan,arg_pericenter,mean_anomaly
19751,COSMOS 1989 (ETALON 1),NSO,16234.43889657,1 19751U 89001C   16234.43889657  .00000056  00000-0  00000+0 0  5656\,2 19751  64.1458 195.2941 0020722 208.2234 342.5832  2.13156245214988,64.1458,0.0020722,2.13156245,195.2941,208.2234,342.5832
19751,COSMOS 1989 (ETALON 1),NSO,16235.25911588,1 19751U 89001C   16235.25911588 +.00000059 +00000-0 +00000-0 0 0001\,2 19751 064.1458 195.2659 0020721 208.2186 251.9937 02.1315623921493,64.1458,0.0020721,2.13156239,195.2659,208.2186,251.9937
19751,COSMOS 1989 (ETALON 1),NSO,16236.11978199,1 19751U 89001C   16236.11978199  .00000060  00000-0  00000+0 0  5669\,2 19751  64.1457 195.2364 0020721 208.2178 192.4377  2.13156236215024,64.1457,0.0020721,2.13156236,195.2364,208.2178,192.4377
19751,COSMOS 1989 (ETALON 1),NSO,16236.71159481,1 19751U 89001C   16236.71159481 +.00000059 +00000-0 +00000-0 0 0001\,2 19751 064.1457 195.2161 0020723 208.2158 286.5747 02.1315623521496,64.1457,0.0020723,2.13156235,195.2161,208.2158,286.5747
19751,COSMOS 1989 (ETALON 1),NSO,16237.14005289,1 19751U 89001C   16237.14005289  .00000057  00000-0  00000+0 0  5671\,2 19751  64.1456 195.2014 0020723 208.2161 255.3572  2.13156235215046,64.1456,0.0020723,2.13156235,195.2014,208.2161,255.3572
19751,COSMOS 1989 (ETALON 1),NSO,16237.82338787,1 19751U 89001C   16237.82338787 +.00000051 +00000-0 +00000-0 0 0001\,2 19751 064.1456 195.1779 0020726 208.2247 059.7145 02.1315623721498,64.1456,0.0020726,2.13156237,195.1779,208.2247,59.7145
19751,COSMOS 1989 (ETALON 1),NSO,16238.76970668,1 19751U 89001C   16238.76970668  .00000039  00000-0  00000+0 0  5683\,2 19751  64.1455 195.1455 0020728 208.2317  65.8772  2.13156241215077,64.1455,0.0020728,2.13156241,195.1455,208.2317,65.8772
19751,COSMOS 1989 (ETALON 1),NSO,16239.64911588,1 19751U 89001C   16239.64911588 +.00000025 +00000-0 +00000-0 0 0001\,2 19751 064.1454 195.1153 0020729 208.2341 020.7008 02.1315624821502,64.1454,0.0020729,2.13156248,195.1153,208.2341,20.7008
19751,COSMOS 1989 (ETALON 1),NSO,16240.12191946,1 19751U 89001C   16240.12191946  .00000017  00000-0  00000+0 0  5697\,2 19751  64.1454 195.0991 0020730 208.2362  23.5105  2.13156253215101,64.1454,0.002073,2.13156253,195.0991,208.2362,23.5105
19751,COSMOS 1989 (ETALON 1),NSO,16240.39733676,1 19751U 89001C   16240.39733676 +.00000013 +00000-0 +00000-0 0 0001\,2 19751 064.1454 195.0896 0020730 208.2349 234.8568 02.1315625721504,64.1454,0.002073,2.13156257,195.0896,208.2349,234.8568
19751,COSMOS 1989 (ETALON 1),NSO,16241.18483943,1 19751U 89001C   16241.18483943 -.00000000  00000-0  00000+0 0  5700\,2 19751  64.1453 195.0626 0020731 208.2445 119.1476  2.13156269215120,64.1453,0.0020731,2.13156269,195.0626,208.2445,119.1476
19751,COSMOS 1989 (ETALON 1),NSO,16241.89708608,1 19751U 89001C   16241.89708608 -.00000010 +00000-0 +00000-0 0 0001\,2 19751 064.1452 195.0382 0020733 208.2479 305.6957 02.1315628221507,64.1452,0.0020733,2.13156282,195.0382,208.2479,305.6957
19751,COSMOS 1989 (ETALON 1),NSO,16242.27282293,1 19751U 89001C   16242.27282293 -.00000014  00000-0  00000+0 0  5712\,2 19751  64.1452 195.0253 0020732 208.2465 234.0237  2.13156290215157,64.1452,0.0020732,2.1315629,195.0253,208.2465,234.0237
19751,COSMOS 1989 (ETALON 1),NSO,16242.54317412,1 19751U 89001C   16242.54317412 -.00000016 +00000-0 +00000-0 0 0001\,2 19751 064.1452 195.0161 0020731 208.2492 081.4784 02.1315629521508,64.1452,0.0020731,2.13156295,195.0161,208.2492,81.4784
19751,COSMOS 1989 (ETALON 1),NSO,16243.81480775,1 19751U 89001C   16243.81480775 -.00000022  00000-0  00000+0 0  5728\,2 19751  64.1451 194.9725 0020729 208.2434 337.2886  2.13156322215185,64.1451,0.0020729,2.13156322,194.9725,208.2434,337.2886
19751,COSMOS 1989 (ETALON 1),NSO,16244.84731661,1 19751U 89001C   16244.84731661 -.00000018 +00000-0 +00000-0 0 0001\,2 19751 064.1450 194.9371 0020725 208.2310 049.6100 02.1315634421513,64.145,0.0020725,2.13156344,194.9371,208.231,49.61
19751,COSMOS 1989 (ETALON 1),NSO,16245.14335716,1 19751U 89001C   16245.14335716 -.00000016  00000-0  00000+0 0  5734\,2 19751  64.1450 194.9269 0020726 208.2291 276.7824  2.13156350215219,64.145,0.0020726,2.1315635,194.9269,208.2291,276.7824
19751,COSMOS 1989 (ETALON 1),NSO,16245.68479926,1 19751U 89001C   16245.68479926 -.00000012 +00000-0 +00000-0 0 0001\,2 19751 064.1450 194.9083 0020724 208.2257 332.2684 02.1315636021515,64.145,0.0020724,2.1315636,194.9083,208.2257,332.2684
19751,COSMOS 1989 (ETALON 1),NSO,16246.53587655,1 19751U 89001C   16246.53587655 -.00000003  00000-0  00000+0 0  5746\,2 19751  64.1449 194.8792 0020725 208.2177 265.3616  2.13156375215242,64.1449,0.0020725,2.13156375,194.8792,208.2177,265.3616
19751,COSMOS 1989 (ETALON 1),NSO,16246.62423922,1 19751U 89001C   16246.62423922 -.00000002 +00000-0 +00000-0 0 0001\,2 19751 064.1449 194.8761 0020724 208.2190 333.1665 02.1315637621517,64.1449,0.0020724,2.13156376,194.8761,208.219,333.1665
19751,COSMOS 1989 (ETALON 1),NSO,16247.68602147,1 19751U 89001C   16247.68602147  .00000010  00000-0  00000+0 0  5755\,2 19751  64.1448 194.8397 0020726 208.2159  67.9419  2.13156390215269,64.1448,0.0020726,2.1315639,194.8397,208.2159,67.9419
19751,COSMOS 1989 (ETALON 1),NSO,16248.63213117,1 19751U 89001C   16248.63213117 +.00000019 +00000-0 +00000-0 0 0001\,2 19751 064.1447 194.8073 0020729 208.2209 073.9465 02.1315639921521,64.1447,0.0020729,2.13156399,194.8073,208.2209,73.9465
19751,COSMOS 1989 (ETALON 1),NSO,16249.10082359,1 19751U 89001C   16249.10082359  .00000023  00000-0  00000+0 0  5766\,2 19751  64.1447 194.7912 0020732 208.2244  73.6002  2.13156401215290,64.1447,0.0020732,2.13156401,194.7912,208.2244,73.6002
19751,COSMOS 1989 (ETALON 1),NSO,16249.56922387,1 19751U 89001C   16249.56922387 +.00000026 +00000-0 +00000-0 0 0001\,2 19751 064.1447 194.7752 0020733 208.2267 073.0309 02.1315640321523,64.1447,0.0020733,2.13156403,194.7752,208.2267,73.0309
19751,COSMOS 1989 (ETALON 1),NSO,16250.38702014,1 19751U 89001C   16250.38702014  .00000029  00000-0  00000+0 0  5772\,2 19751  64.1446 194.7471 0020732 208.2284 340.5758  2.13156404215324,64.1446,0.0020732,2.13156404,194.7471,208.2284,340.5758
19751,COSMOS 1989 (ETALON 1),NSO,16251.64175669,1 19751U 89001C   16251.64175669  .00000028  00000-0  00000+0 0  5782\,2 19751  64.1445 194.7041 0020734 208.2209 223.4217  2.13156395215356,64.1445,0.0020734,2.13156395,194.7041,208.2209,223.4217
19751,COSMOS 1989 (ETALON 1),NSO,16252.66545645,1 19751U 89001C   16252.66545645  .00000025  00000-0  00000+0 0  5798\,2 19751  64.1444 194.6691 0020732 208.2067 288.9851  2.13156382215373,64.1444,0.0020732,2.13156382,194.6691,208.2067,288.9851
19751,COSMOS 1989 (ETALON 1),NSO,16253.57542863,1 19751U 89001C   16253.57542863 +.00000020 +00000-0 +00000-0 0 0001\,2 19751 064.1443 194.6379 0020733 208.1937 267.2771 02.1315636821532,64.1443,0.0020733,2.13156368,194.6379,208.1937,267.2771
19751,COSMOS 1989 (ETALON 1),NSO,16253.99604684,1 19751U 89001C   16253.99604684  .00000017  00000-0  00000+0 0  5807\,2 19751  64.1443 194.6235 0020734 208.1895 230.0480  2.13156360215402,64.1443,0.0020734,2.1315636,194.6235,208.1895,230.048
19751,COSMOS 1989 (ETALON 1),NSO,16254.71094991,1 19751U 89001C   16254.71094991 +.00000013 +00000-0 +00000-0 0 0001\,2 19751 064.1442 194.5990 0020736 208.1792 058.6486 02.1315634721534,64.1442,0.0020736,2.13156347,194.599,208.1792,58.6486
19751,COSMOS 1989 (ETALON 1),NSO,16255.42913838,1 19751U 89001C   16255.42913838  .00000010  00000-0  00000+0 0  5815\,2 19751  64.1441 194.5743 0020737 208.1775 249.7614  2.13156334215433,64.1441,0.0020737,2.13156334,194.5743,208.1775,249.7614
19751,COSMOS 1989 (ETALON 1),NSO,16255.65770354,1 19751U 89001C   16255.65770354 +.00000009 +00000-0 +00000-0 0 0001\,2 19751 064.1441 194.5665 0020739 208.1750 065.1564 02.1315633021536,64.1441,0.0020739,2.1315633,194.5665,208.175,65.1564
19751,COSMOS 1989 (ETALON 1),NSO,16256.48445414,1 19751U 89001C   16256.48445414  .00000006  00000-0  00000+0 0  5828\,2 19751  64.1440 194.5381 0020742 208.1761 339.5731  2.13156314215459,64.144,0.0020742,2.13156314,194.5381,208.1761,339.5731
19751,COSMOS 1989 (ETALON 1),NSO,16256.83075508,1 19751U 89001C   16256.83075508 +.00000005 +00000-0 +00000-0 0 0001\,2 19751 064.1440 194.5263 0020743 208.1806 245.3070 02.1315630821539,64.144,0.0020743,2.13156308,194.5263,208.1806,245.307
19751,COSMOS 1989 (ETALON 1),NSO,16257.55006105,1 19751U 89001C   16257.55006105  .00000004  00000-0  00000+0 0  5836\,2 19751  64.1440 194.5016 0020748 208.1849  77.2715  2.13156296215476,64.144,0.0020748,2.13156296,194.5016,208.1849,77.2715
19751,COSMOS 1989 (ETALON 1),NSO,16257.95137061,1 19751U 89001C   16257.95137061 +.00000004 +00000-0 +00000-0 0 0001\,2 19751 064.1439 194.4879 0020749 208.1857 025.2207 02.1315628921541,64.1439,0.0020749,2.13156289,194.4879,208.1857,25.2207
19751,COSMOS 1989 (ETALON 1),NSO,16258.35368095,1 19751U 89001C   16258.35368095 +.00000005 +00000-0 +00000-0 0 0001\,2 19751 064.1439 194.4741 0020750 208.1891 333.9353 02.1315628321542,64.1439,0.002075,2.13156283,194.4741,208.1891,333.9353
19751,COSMOS 1989 (ETALON 1),NSO,16259.17907605,1 19751U 89001C   16259.17907605  .00000007  00000-0  00000+0 0  5845\,2 19751  64.1439 194.4458 0020751 208.1937 247.3082  2.13156270215519,64.1439,0.0020751,2.1315627,194.4458,208.1937,247.3082
19751,COSMOS 1989 (ETALON 1),NSO,16259.84417575,1 19751U 89001C   16259.84417575 +.00000010 +00000-0 +00000-0 0 0001\,2 19751 064.1438 194.4230 0020754 208.1945 037.6801 02.1315626021545,64.1438,0.0020754,2.1315626,194.423,208.1945,37.6801
19751,COSMOS 1989 (ETALON 1),NSO,16260.31597023,1 19751U 89001C   16260.31597023  .00000013  00000-0  00000+0 0  5850\,2 19751  64.1438 194.4068 0020754 208.1919  39.7203  2.13156254215530,64.1438,0.0020754,2.13156254,194.4068,208.1919,39.7203
